[{"OBJECT_NAME":"METEOR-M 2","OBJECT_ID":"2014-037A","EPOCH":"2026-03-09T23:09:30.537792","MEAN_MOTION":14.21428734,"ECCENTRICITY":0.00053128,"INCLINATION":98.5035,"RA_OF_ASC_NODE":48.2672,"ARG_OF_PERICENTER":336.7967,"MEAN_ANOMALY":23.2971,"EPHEMERIS_TYPE":0,"CLASSIFICATION_TYPE":"U","NORAD_CAT_ID":40069,"ELEMENT_SET_NO":999,"REV_AT_EPOCH":60522,"BSTAR":2.6040138e-5,"MEAN_MOTION_DOT":1.5e-7,"MEAN_MOTION_DDOT":0},{"OBJECT_NAME":"CZ-6A DEB","OBJECT_ID":"2022-151AX","EPOCH":"2026-03-09T22:56:38.791392","MEAN_MOTION":14.16154704,"ECCENTRICITY":0.00416089,"INCLINATION":98.8402,"RA_OF_ASC_NODE":77.9193,"ARG_OF_PERICENTER":234.636,"MEAN_ANOMALY":125.0923,"EPHEMERIS_TYPE":0,"CLASSIFICATION_TYPE":"U","NORAD_CAT_ID":54304,"ELEMENT_SET_NO":999,"REV_AT_EPOCH":17077,"BSTAR":0.0011487222,"MEAN_MOTION_DOT":2.247e-5,"MEAN_MOTION_DDOT":0}]
